[
    {
        "Altitude(m)": 622205.90169909,
        "Argument of Periapsis(deg)": 0.0,
        "Eccentricity": 0.0,
        "Inclination(deg)": 60.0,
        "Latitude(deg)": -52.162529829982375,
        "Longitude(deg)": -107.29964393388234,
        "Mean Anomaly(deg)": -114.5455,
        "RAAN(deg)": 125.00000000000001,
        "Satellite Name": "Test1 565",
        "Satellite Number": 565,
        "Semi-Major Axis(m)": 6980739.136638005,
        "Time(s)": 0
    },
    {
        "Altitude(m)": 622344.808273744,
        "Argument of Periapsis(deg)": 0.00010418945913296404,
        "Eccentricity": 0.0,
        "Inclination(deg)": 60.0,
        "Latitude(deg)": -52.52010981702076,
        "Longitude(deg)": -106.51843039214641,
        "Mean Anomaly(deg)": -113.92539385453817,
        "RAAN(deg)": 124.99957995086027,
        "Satellite Name": "Test1 565",
        "Satellite Number": 565,
        "Semi-Major Axis(m)": 6980739.136638005,
        "Time(s)": 10
    }
]